ICEYE-X72               
1 68504U 26067CS  26189.61198041 -.00065780  00000+0 -61148-2 0  9999
2 68504  97.7631 147.6449 0001968 277.2648  82.8349 14.94716485 14922
ICEYE-X78               
1 68995U 26100R   26189.67372388  .00000760  00000+0  80871-4 0  9996
2 68995  97.7343  86.7288 0003819  67.9217 292.2407 14.91805336  9908
ICEYE-X82               
1 68996U 26100S   26189.69395351  .00001229  00000+0  12863-3 0  9990
2 68996  97.7336  86.6976 0005855  79.3227 280.8651 14.91406235  9903
